[{"OBJECT_NAME":"KSM1-A","OBJECT_ID":"2020-081H","EPOCH":"2026-03-09T23:34:08.864256","MEAN_MOTION":15.24261374,"ECCENTRICITY":0.00028414,"INCLINATION":36.8964,"RA_OF_ASC_NODE":312.2974,"ARG_OF_PERICENTER":256.0923,"MEAN_ANOMALY":103.9509,"EPHEMERIS_TYPE":0,"CLASSIFICATION_TYPE":"U","NORAD_CAT_ID":46912,"ELEMENT_SET_NO":999,"REV_AT_EPOCH":29402,"BSTAR":0.00047546467,"MEAN_MOTION_DOT":0.00011801,"MEAN_MOTION_DDOT":0},{"OBJECT_NAME":"YAOGAN-36 03C","OBJECT_ID":"2022-160E","EPOCH":"2026-03-09T20:06:06.577632","MEAN_MOTION":15.22991504,"ECCENTRICITY":0.00114517,"INCLINATION":35.0077,"RA_OF_ASC_NODE":244.2786,"ARG_OF_PERICENTER":217.8015,"MEAN_ANOMALY":142.1896,"EPHEMERIS_TYPE":0,"CLASSIFICATION_TYPE":"U","NORAD_CAT_ID":54376,"ELEMENT_SET_NO":999,"REV_AT_EPOCH":18289,"BSTAR":-5.118835e-6,"MEAN_MOTION_DOT":-1.61e-6,"MEAN_MOTION_DDOT":0}]
